PHASE 3B (AO-10)        
1 14129U 83058B   20357.22733345  .00000120  00000-0  00000-0 0  9990
2 14129  25.7382 184.3459 6075015 294.6806  15.0443  2.05870543254270
UOSAT 2 (UO-11)         
1 14781U 84021B   20359.60394757  .00000215  00000-0  32407-4 0  9994
2 14781  97.5895   2.1066 0007150 302.1702  57.8819 14.83229624960014
LUSAT (LO-19)           
1 20442U 90005G   20359.85621244  .00000020  00000-0  24004-4 0  9993
2 20442  98.7181 307.9688 0011050 319.0775  40.9579 14.32971549615885
EYESAT A (AO-27)        
1 22825U 93061C   20359.74764817  .00000008  00000-0  20949-4 0  9997
2 22825  98.9246   7.0070 0008445 176.4204 183.7039 14.30101664421282
ITAMSAT (IO-26)         
1 22826U 93061D   20359.75931279  .00000013  00000-0  23094-4 0  9997
2 22826  98.9187   6.9450 0009198 164.7713 195.3747 14.30439015421254
RADIO ROSTO (RS-15)     
1 23439U 94085A   20359.98348392 -.00000037  00000-0  15882-3 0  9990
2 23439  64.8168 298.1270 0155151   6.6105 353.6818 11.27569799 70660
JAS-2 (FO-29)           
1 24278U 96046B   20360.23775489 -.00000024  00000-0  14397-4 0  9999
2 24278  98.5872  85.1546 0349500 240.7902 115.7862 13.53101496202937
TECHSAT 1B (GO-32)      
1 25397U 98043D   20359.90312561 -.00000001  00000-0  18883-4 0  9990
2 25397  98.7512 300.1316 0000814 170.2082 189.9113 14.23697921166871
ISS (ZARYA)             
1 25544U 98067A   20360.22971278  .00001493  00000-0  34975-4 0  9998
2 25544  51.6448 123.1901 0001374 159.2275 270.8375 15.49224279261638
PCSAT (NO-44)           
1 26931U 01043C   20360.16920452  .00000001  00000-0  32091-4 0  9999
2 26931  67.0518  10.2229 0007377 273.2894  86.7363 14.30600276  4427
SAUDISAT 1C (SO-50)     
1 27607U 02058C   20359.86872286  .00000103  00000-0  35167-4 0  9993
2 27607  64.5541 152.1804 0029716 101.0875 259.3571 14.75694979968812
CUTE-1 (CO-55)          
1 27844U 03031E   20359.80068396  .00000087  00000-0  58758-4 0  9993
2 27844  98.6817   4.6584 0009167 220.0698 139.9804 14.22277789907192
CUBESAT XI-IV (CO-57)   
1 27848U 03031J   20359.81254695  .00000065  00000-0  49124-4 0  9990
2 27848  98.6877   5.2378 0008904 233.7903 126.2452 14.21859215907027
MOZHAYETS 4 (RS-22)     
1 27939U 03042A   20360.10781726  .00000187  00000-0  42100-4 0  9999
2 27939  98.1157 132.7147 0014241 110.0896 250.1832 14.66926262921967
CUBESAT XI-V            
1 28895U 05043F   20359.58056635  .00000204  00000-0  48023-4 0  9998
2 28895  98.0343 130.9260 0017573  44.9976 315.2647 14.63845393808420
CUTE-1.7+APD II (CO-65) 
1 32785U 08021C   20360.10853454  .00000476  00000-0  56647-4 0  9996
2 32785  97.5921 339.9437 0012017 216.0504 143.9904 14.88596156686303
DELFI-C3 (DO-64)        
1 32789U 08021G   20360.10934051  .00002875  00000-0  18891-3 0  9996
2 32789  97.3983  36.0667 0012487  29.2245 330.9680 15.08318594690642
SEEDS II (CO-66)        
1 32791U 08021J   20359.84467259  .00000778  00000-0  83480-4 0  9996
2 32791  97.5553 345.7485 0013050 181.5983 178.5196 14.91224904686753
YUBILEINY (RS-30)       
1 32953U 08025A   20360.14260698  .00000028  00000-0  12906-3 0  9995
2 32953  82.5015 159.3385 0019157 359.2435   0.8611 12.43099102571328
KKS-1 (KISEKI)          
1 33499U 09002H   20359.86519886  .00000189  00000-0  35672-4 0  9994
2 33499  98.2908 219.6742 0008013 233.7808 126.2660 14.75598622640664
SWISSCUBE               
1 35932U 09051B   20359.79418304  .00000193  00000-0  54512-4 0  9996
2 35932  98.6067 188.2296 0006519 262.7734  97.2722 14.56467648597537
BEESAT-1                
1 35933U 09051C   20360.11070041  .00000175  00000-0  50458-4 0  9992
2 35933  98.6046 190.4159 0004703 277.4566  82.6096 14.56534307597738
ITUPSAT1                
1 35935U 09051E   20359.80522587  .00000149  00000-0  45282-4 0  9995
2 35935  98.6152 190.2712 0007029 278.0632  81.9766 14.55673020597366
XIWANG-1 (HOPE-1)       
1 36122U 09072B   20360.17614872 -.00000043  00000-0 -21684-5 0  9994
2 36122 100.1124 342.2287 0007843 140.6300 219.5392 13.16357916529963
JUGNU                   
1 37839U 11058B   20359.93742428  .00000307  00000-0  21729-4 0  9998
2 37839  19.9595 207.5806 0018870 328.3515 164.8853 14.12698503475863
SRMSAT                  
1 37841U 11058D   20359.84666862  .00000321  00000-0  31296-4 0  9994
2 37841  19.9720 276.4006 0011981 175.0391 227.5189 14.10681396475047
M-CUBED & EXP-1 PRIME   
1 37855U 11061F   20360.11327251  .00003768  00000-0  18933-3 0  9991
2 37855 101.7261 187.0912 0168882 228.8874 129.7654 15.06971510500383
STRAND-1                
1 39090U 13009E   20359.83195719  .00000069  00000-0  39022-4 0  9991
2 39090  98.4376 200.0084 0010272  79.7036 280.5308 14.35160271409995
SOMP                    
1 39134U 13015E   20359.81575011  .00003197  00000-0  14884-3 0  9995
2 39134  64.8647  20.0310 0015110 220.2797 139.7213 15.21775897424637
BEESAT-3                
1 39135U 13015F   20360.11498001  .00002583  00000-0  13268-3 0  9997
2 39135  64.8685  45.4609 0021109 210.7141 149.2752 15.18750136424554
BEESAT-2                
1 39136U 13015G   20359.97515969  .00002404  00000-0  12560-3 0  9999
2 39136  64.8774  51.6024 0031127 264.4190  95.3387 15.18134843424427
ZACUBE-1 (TSHEPISOSAT)  
1 39417U 13066B   20359.85236091  .00000505  00000-0  69206-4 0  9990
2 39417  97.5774 347.4101 0059143  15.0378 345.2577 14.81391052383226
GOMX-1                  
1 39430U 13066Q   20360.06007189  .00000387  00000-0  79169-4 0  9991
2 39430  97.8067 287.2101 0149803 304.5521  54.1627 14.59509722377606
CUBEBUG-2 (LO-74)       
1 39440U 13066AA  20359.84225381  .00000426  00000-0  65403-4 0  9992
2 39440  97.6540 332.0592 0081436  82.2693 278.7755 14.76123381380669
FUNCUBE-1 (AO-73)       
1 39444U 13066AE  20359.80675085  .00000626  00000-0  82552-4 0  9998
2 39444  97.5697 349.6855 0058018   6.5382 353.6576 14.82271806381562
UWE-3                   
1 39446U 13066AG  20359.84329719  .00000490  00000-0  70880-4 0  9994
2 39446  97.6173 339.1520 0070960  49.5195 311.2172 14.78658663380708
SPROUT                  
1 39770U 14029E   20360.27390786  .00001150  00000-0  13099-3 0  9997
2 39770  97.9045 105.8935 0010010  64.4372 295.7923 14.88084100357434
UNISAT-6                
1 40012U 14033C   20359.86667376  .00000310  00000-0  52828-4 0  9999
2 40012  97.6879 205.3037 0059516 104.5211 256.2610 14.74214058350472
DUCHIFAT-1              
1 40021U 14033M   20359.87411350  .00000741  00000-0  80522-4 0  9999
2 40021  97.9579 292.4107 0013548  25.5402 334.6483 14.91115876354263
QB50P1                  
1 40025U 14033R   20359.80830940  .00000610  00000-0  70277-4 0  9997
2 40025  97.9244 284.1534 0013344  38.1731 322.0429 14.89285438353424
NUDT-PHONESAT           
1 40900U 15049B   20360.12586366  .00004418  00000-0  17874-3 0  9997
2 40900  97.4274   9.4917 0013400  39.4269  33.5417 15.25153684292241
ZDPS 2A                 
1 40901U 15049C   20360.10764859  .00002105  00000-0  10408-3 0  9998
2 40901  97.4630   3.3632 0014846  71.4163  15.0291 15.18850331291507
ZDPS 2B                 
1 40902U 15049D   20360.08974213  .00002189  00000-0  10806-3 0  9997
2 40902  97.4644   0.6248 0014868  69.0560  17.3831 15.18860857291479
XW-2A                   
1 40903U 15049E   20360.10749889  .00004033  00000-0  90012-4 0  9998
2 40903  97.2632  49.0016 0010933 293.0908 150.7321 15.44081652295881
KAITUO 1A               
1 40904U 15049F   20360.10346843  .00000641  00000-0  36817-4 0  9996
2 40904  97.4824 358.3356 0016149  82.8632   2.4333 15.15931178291127
2015-049G               
1 40905U 15049G   20360.13202709  .00000805  00000-0  46859-4 0  9991
2 40905  97.4936 355.4919 0017274  81.3168 343.2474 15.14762244290949
XW-2C                   
1 40906U 15049H   20360.10513193  .00001115  00000-0  60723-4 0  9992
2 40906  97.4825 358.7329 0016310  74.1158 358.3706 15.16382389291145
XW-2D                   
1 40907U 15049J   20360.13181882  .00001446  00000-0  77115-4 0  9992
2 40907  97.4817 358.5018 0015692  70.8773 351.9084 15.16656978291177
LILACSAT-2              
1 40908U 15049K   20360.10038584  .00000487  00000-0  30195-4 0  9991
2 40908  97.4983 356.5620 0017482  82.8226 349.6361 15.14225979290840
XW-2F                   
1 40910U 15049M   20360.10919663  .00001971  00000-0  98749-4 0  9998
2 40910  97.4713   1.3310 0015992  60.8013  11.7988 15.18445426291263
XW-2B                   
1 40911U 15049N   20360.12571363  .00001511  00000-0  80646-4 0  9999
2 40911  97.4821 359.1931 0015609  72.3899 352.5792 15.16579333291062
KAITUO 1B               
1 40912U 15049P   20360.12873128  .00002421  00000-0  11234-3 0  9991
2 40912  97.4476   5.6541 0015674  37.3593  31.0126 15.20906329291696
TIANWANG 1C (TW-1C)     
1 40926U 15051B   20360.15096892  .00134358  00000-0  61966-3 0  9999
2 40926  97.0548  54.4093 0003987  84.4485 330.3165 15.83182924296978
TIANWANG 1A (TW-1A)     
1 40928U 15051D   20360.03597166  .00005887  00000-0  13055-3 0  9998
2 40928  97.0933  23.1888 0009054 201.5314 212.6519 15.44072374294761
LAPAN-A2                
1 40931U 15052B   20359.54616533  .00000744  00000-0  14588-4 0  9997
2 40931   6.0000  59.7092 0012340  85.7839 274.4370 14.76657013283401
E-ST@R-II               
1 41459U 16025D   20360.12641696  .00002614  00000-0  13345-3 0  9995
2 41459  98.1202 120.3351 0161344 290.0095  68.3821 15.07145795256157
AAUSAT 4                
1 41460U 16025E   20360.28727867  .00004523  00000-0  21907-3 0  9993
2 41460  98.1200 123.5677 0149612 275.7135  82.7068 15.09775029256426
NUSAT-1 (FRESCO)        
1 41557U 16033B   20360.12659841  .00002672  00000-0  98282-4 0  9992
2 41557  97.3994  89.1360 0014482 128.4040 324.3236 15.28677089254894
BEESAT-4                
1 41619U 16040W   20359.73613193  .00003282  00000-0  13544-3 0  9999
2 41619  97.2967  54.5642 0009749 221.9087 138.1405 15.24698969238382
